
{"data":[{"id":1,"divisionStr":"北京--北京","name":"北京","lng":116.395645,"lat":39.929986,"pinyin":"beijing","isOpen":true},{"id":10,"divisionStr":"上海--上海","name":"上海","lng":121.487899,"lat":31.249162,"pinyin":"shanghai","isOpen":true},{"id":20,"divisionStr":"广东--广州","name":"广州","lng":113.30765,"lat":23.120049,"pinyin":"guangzhou","isOpen":true},{"id":30,"divisionStr":"广东--深圳","name":"深圳","lng":114.025974,"lat":22.546054,"pinyin":"shenzhen","isOpen":true},{"id":40,"divisionStr":"天津--天津","name":"天津","lng":117.210813,"lat":39.14393,"pinyin":"tianjin","isOpen":true},{"id":42,"divisionStr":"","name":"西安","lng":108.953098,"lat":34.2778,"pinyin":"xian","isOpen":true},{"id":44,"divisionStr":"福建--福州","name":"福州","lng":119.330221,"lat":26.047125,"pinyin":"fuzhou","isOpen":true},{"id":45,"divisionStr":"重庆--重庆","name":"重庆","lng":106.530635,"lat":29.544606,"pinyin":"chongqing","isOpen":true},{"id":50,"divisionStr":"浙江--杭州","name":"杭州","lng":120.219375,"lat":30.259244,"pinyin":"hangzhou","isOpen":true},{"id":51,"divisionStr":"浙江--宁波","name":"宁波","lng":121.579006,"lat":29.885259,"pinyin":"ningbo","isOpen":true},{"id":52,"divisionStr":"浙江--无锡","name":"无锡","lng":120.305456,"lat":31.570037,"pinyin":"wuxi","isOpen":true},{"id":55,"divisionStr":"江苏--南京","name":"南京","lng":118.778074,"lat":32.057236,"pinyin":"nanjing","isOpen":true},{"id":56,"divisionStr":"安徽--合肥","name":"合肥","lng":117.282699,"lat":31.866942,"pinyin":"hefei","isOpen":true},{"id":57,"divisionStr":"湖北--武汉","name":"武汉","lng":114.3162,"lat":30.581084,"pinyin":"wuhan","isOpen":true},{"id":59,"divisionStr":"四川--成都","name":"成都","lng":104.067923,"lat":30.679943,"pinyin":"chengdu","isOpen":true},{"id":60,"divisionStr":"山东--青岛","name":"青岛","lng":120.384428,"lat":36.105215,"pinyin":"qingdao","isOpen":true},{"id":62,"divisionStr":"","name":"厦门","lng":118.103886,"lat":24.489231,"pinyin":"xiamen","isOpen":true},{"id":65,"divisionStr":"","name":"大连","lng":121.593478,"lat":38.94871,"pinyin":"dalian","isOpen":true},{"id":66,"divisionStr":"","name":"沈阳","lng":123.432791,"lat":41.808645,"pinyin":"shenyang","isOpen":true},{"id":70,"divisionStr":"","name":"长沙","lng":112.979353,"lat":28.213478,"pinyin":"changsha","isOpen":true},{"id":73,"divisionStr":"","name":"郑州","lng":113.649644,"lat":34.75661,"pinyin":"zhengzhou","isOpen":true},{"id":76,"divisionStr":"","name":"石家庄","lng":114.522082,"lat":38.048958,"pinyin":"shijiazhuang","isOpen":true},{"id":80,"divisionStr":"","name":"苏州","lng":120.619907,"lat":31.317987,"pinyin":"suzhou","isOpen":true},{"id":81,"divisionStr":"","name":"淄博","lng":118.059134,"lat":36.804685,"pinyin":"zibo","isOpen":true},{"id":82,"divisionStr":"","name":"南通","lng":120.873801,"lat":32.014665,"pinyin":"nantong","isOpen":true},{"id":83,"divisionStr":"","name":"南昌","lng":115.893528,"lat":28.689578,"pinyin":"nanchang","isOpen":true},{"id":84,"divisionStr":"","name":"保定","lng":0,"lat":0,"pinyin":"baoding","isOpen":false},{"id":88,"divisionStr":"","name":"蚌埠","lng":0,"lat":0,"pinyin":"bengbu","isOpen":false},{"id":89,"divisionStr":"","name":"常州","lng":119.981861,"lat":31.771397,"pinyin":"changzhou","isOpen":true},{"id":90,"divisionStr":"","name":"大庆","lng":0,"lat":0,"pinyin":"daqing","isOpen":false},{"id":91,"divisionStr":"","name":"东莞","lng":113.763434,"lat":23.043024,"pinyin":"dongguan","isOpen":true},{"id":92,"divisionStr":"","name":"佛山","lng":113.134026,"lat":23.035095,"pinyin":"foshan","isOpen":true},{"id":93,"divisionStr":"","name":"桂林","lng":110.26092,"lat":25.262901,"pinyin":"guilin","isOpen":true},{"id":94,"divisionStr":"","name":"海口","lng":110.330802,"lat":20.022071,"pinyin":"haikou","isOpen":true},{"id":95,"divisionStr":"","name":"葫芦岛","lng":0,"lat":0,"pinyin":"huludao","isOpen":false},{"id":96,"divisionStr":"","name":"济南","lng":117.024967,"lat":36.682785,"pinyin":"jinan","isOpen":true},{"id":97,"divisionStr":"","name":"焦作","lng":113.211836,"lat":35.234608,"pinyin":"jiaozuo","isOpen":true},{"id":98,"divisionStr":"","name":"锦州","lng":121.147749,"lat":41.130879,"pinyin":"jinzhou","isOpen":true},{"id":99,"divisionStr":"","name":"南宁","lng":108.297234,"lat":22.806493,"pinyin":"nanning","isOpen":true},{"id":101,"divisionStr":"","name":"太原","lng":112.550864,"lat":37.890277,"pinyin":"taiyuan","isOpen":true},{"id":102,"divisionStr":"","name":"芜湖","lng":118.384108,"lat":31.36602,"pinyin":"wuhu","isOpen":true},{"id":103,"divisionStr":"","name":"新乡","lng":0,"lat":0,"pinyin":"xinxiang","isOpen":false},{"id":104,"divisionStr":"","name":"烟台","lng":121.309555,"lat":37.536562,"pinyin":"yantai","isOpen":true},{"id":105,"divisionStr":"","name":"哈尔滨","lng":126.657717,"lat":45.773225,"pinyin":"haerbin","isOpen":true},{"id":106,"divisionStr":"","name":"廊坊","lng":116.703602,"lat":39.518611,"pinyin":"langfang","isOpen":true},{"id":107,"divisionStr":"","name":"贵阳","lng":106.709177,"lat":26.629907,"pinyin":"guiyang","isOpen":true},{"id":108,"divisionStr":"","name":"珠海","lng":113.562447,"lat":22.256915,"pinyin":"zhuhai","isOpen":true},{"id":109,"divisionStr":"","name":"齐齐哈尔","lng":123.987289,"lat":47.3477,"pinyin":"qiqihaer","isOpen":true},{"id":110,"divisionStr":"","name":"泉州","lng":118.600362,"lat":24.901652,"pinyin":"quanzhou","isOpen":true},{"id":111,"divisionStr":"","name":"三亚","lng":109.522771,"lat":18.257776,"pinyin":"sanya","isOpen":true},{"id":112,"divisionStr":"","name":"温州","lng":120.690635,"lat":28.002838,"pinyin":"wenzhou","isOpen":true},{"id":113,"divisionStr":"","name":"中山","lng":113.42206,"lat":22.545178,"pinyin":"zhongshan","isOpen":true},{"id":114,"divisionStr":"","name":"昆明","lng":102.714601,"lat":25.049153,"pinyin":"kunming","isOpen":true},{"id":115,"divisionStr":"","name":"九江","lng":0,"lat":0,"pinyin":"jiujiang","isOpen":false},{"id":116,"divisionStr":"","name":"长春","lng":125.313642,"lat":43.898338,"pinyin":"changchun","isOpen":true},{"id":117,"divisionStr":"","name":"汕头","lng":0,"lat":0,"pinyin":"shantou","isOpen":false},{"id":118,"divisionStr":"","name":"香港","lng":0,"lat":0,"pinyin":"xianggang","isOpen":false},{"id":119,"divisionStr":"","name":"徐州","lng":117.188107,"lat":34.271553,"pinyin":"xuzhou","isOpen":true},{"id":120,"divisionStr":"","name":"扬州","lng":119.427778,"lat":32.408505,"pinyin":"yangzhou","isOpen":true},{"id":121,"divisionStr":"","name":"唐山","lng":118.183451,"lat":39.650531,"pinyin":"tangshan","isOpen":true},{"id":122,"divisionStr":"","name":"秦皇岛","lng":119.604368,"lat":39.945462,"pinyin":"qinhuangdao","isOpen":true},{"id":123,"divisionStr":"","name":"邯郸","lng":114.482694,"lat":36.609308,"pinyin":"handan","isOpen":true},{"id":124,"divisionStr":"","name":"邢台","lng":0,"lat":0,"pinyin":"xingtai","isOpen":false},{"id":125,"divisionStr":"","name":"张家口","lng":0,"lat":0,"pinyin":"zhangjiakou","isOpen":false},{"id":126,"divisionStr":"","name":"承德","lng":0,"lat":0,"pinyin":"chengde","isOpen":false},{"id":127,"divisionStr":"","name":"沧州","lng":0,"lat":0,"pinyin":"cangzhou","isOpen":false},{"id":128,"divisionStr":"","name":"衡水","lng":0,"lat":0,"pinyin":"hengshui","isOpen":false},{"id":129,"divisionStr":"","name":"大同","lng":0,"lat":0,"pinyin":"datong","isOpen":false},{"id":130,"divisionStr":"","name":"阳泉","lng":0,"lat":0,"pinyin":"yangquan","isOpen":false},{"id":131,"divisionStr":"","name":"长治","lng":0,"lat":0,"pinyin":"changzhi","isOpen":false},{"id":132,"divisionStr":"","name":"晋城","lng":0,"lat":0,"pinyin":"jincheng","isOpen":false},{"id":133,"divisionStr":"","name":"朔州","lng":0,"lat":0,"pinyin":"shuozhou","isOpen":false},{"id":134,"divisionStr":"","name":"晋中","lng":0,"lat":0,"pinyin":"jinzhong","isOpen":false},{"id":135,"divisionStr":"","name":"运城","lng":111.006854,"lat":35.038859,"pinyin":"yuncheng","isOpen":true},{"id":136,"divisionStr":"","name":"忻州","lng":0,"lat":0,"pinyin":"xinzhou","isOpen":false},{"id":137,"divisionStr":"","name":"临汾","lng":111.538788,"lat":36.099745,"pinyin":"linfen","isOpen":true},{"id":138,"divisionStr":"","name":"吕梁","lng":0,"lat":0,"pinyin":"lvliang","isOpen":false},{"id":139,"divisionStr":"","name":"呼和浩特","lng":111.660351,"lat":40.828319,"pinyin":"huhehaote","isOpen":true},{"id":140,"divisionStr":"","name":"包头","lng":109.846239,"lat":40.647119,"pinyin":"baotou","isOpen":true},{"id":141,"divisionStr":"","name":"乌海","lng":0,"lat":0,"pinyin":"wuhai","isOpen":false},{"id":142,"divisionStr":"","name":"赤峰","lng":0,"lat":0,"pinyin":"chifeng","isOpen":false},{"id":143,"divisionStr":"","name":"通辽","lng":0,"lat":0,"pinyin":"tongliao","isOpen":false},{"id":144,"divisionStr":"","name":"鄂尔多斯","lng":0,"lat":0,"pinyin":"eerduosi","isOpen":false},{"id":145,"divisionStr":"","name":"呼伦贝尔","lng":0,"lat":0,"pinyin":"hulunbeier","isOpen":false},{"id":146,"divisionStr":"","name":"巴彦淖尔","lng":0,"lat":0,"pinyin":"bayannaoer","isOpen":false},{"id":147,"divisionStr":"","name":"乌兰察布","lng":0,"lat":0,"pinyin":"wulanchabu","isOpen":false},{"id":148,"divisionStr":"","name":"兴安","lng":0,"lat":0,"pinyin":"xinganmeng","isOpen":false},{"id":149,"divisionStr":"","name":"锡林郭勒","lng":0,"lat":0,"pinyin":"xilinguolemeng","isOpen":false},{"id":150,"divisionStr":"","name":"阿拉善","lng":0,"lat":0,"pinyin":"alashanmeng","isOpen":false},{"id":151,"divisionStr":"","name":"鞍山","lng":123.007763,"lat":41.118744,"pinyin":"anshan","isOpen":true},{"id":152,"divisionStr":"","name":"抚顺","lng":123.92982,"lat":41.877304,"pinyin":"fushun","isOpen":true},{"id":153,"divisionStr":"","name":"本溪","lng":0,"lat":0,"pinyin":"benxi","isOpen":false},{"id":154,"divisionStr":"","name":"丹东","lng":0,"lat":0,"pinyin":"dandong","isOpen":false},{"id":155,"divisionStr":"","name":"营口","lng":0,"lat":0,"pinyin":"yingkou","isOpen":false},{"id":156,"divisionStr":"","name":"阜新","lng":0,"lat":0,"pinyin":"fuxin","isOpen":false},{"id":157,"divisionStr":"","name":"辽阳","lng":0,"lat":0,"pinyin":"liaoyang","isOpen":false},{"id":158,"divisionStr":"","name":"盘锦","lng":0,"lat":0,"pinyin":"panjin","isOpen":false},{"id":159,"divisionStr":"","name":"铁岭","lng":0,"lat":0,"pinyin":"tieling","isOpen":false},{"id":160,"divisionStr":"","name":"朝阳","lng":0,"lat":0,"pinyin":"chaoyang","isOpen":false},{"id":161,"divisionStr":"","name":"吉林","lng":126.262876,"lat":43.678846,"pinyin":"jilin","isOpen":true},{"id":162,"divisionStr":"","name":"四平","lng":0,"lat":0,"pinyin":"siping","isOpen":false},{"id":163,"divisionStr":"","name":"辽源","lng":0,"lat":0,"pinyin":"liaoyuan","isOpen":false},{"id":164,"divisionStr":"","name":"通化","lng":0,"lat":0,"pinyin":"tonghua","isOpen":false},{"id":165,"divisionStr":"","name":"白山","lng":0,"lat":0,"pinyin":"baishan","isOpen":false},{"id":166,"divisionStr":"","name":"松原","lng":0,"lat":0,"pinyin":"songyuan","isOpen":false},{"id":167,"divisionStr":"","name":"白城","lng":0,"lat":0,"pinyin":"baicheng","isOpen":false},{"id":168,"divisionStr":"","name":"延边","lng":0,"lat":0,"pinyin":"yanbian","isOpen":false},{"id":169,"divisionStr":"","name":"鸡西","lng":0,"lat":0,"pinyin":"jixi","isOpen":false},{"id":170,"divisionStr":"","name":"鹤岗","lng":0,"lat":0,"pinyin":"hegang","isOpen":false},{"id":171,"divisionStr":"","name":"双鸭山","lng":0,"lat":0,"pinyin":"shuangyashan","isOpen":false},{"id":172,"divisionStr":"","name":"伊春","lng":0,"lat":0,"pinyin":"yichunyc","isOpen":false},{"id":173,"divisionStr":"","name":"佳木斯","lng":0,"lat":0,"pinyin":"jiamusi","isOpen":false},{"id":174,"divisionStr":"","name":"七台河","lng":0,"lat":0,"pinyin":"qitaihe","isOpen":false},{"id":175,"divisionStr":"","name":"牡丹江","lng":0,"lat":0,"pinyin":"mudanjiang","isOpen":false},{"id":176,"divisionStr":"","name":"黑河","lng":0,"lat":0,"pinyin":"heihe","isOpen":false},{"id":177,"divisionStr":"","name":"绥化","lng":0,"lat":0,"pinyin":"suihua","isOpen":false},{"id":178,"divisionStr":"","name":"大兴安岭","lng":0,"lat":0,"pinyin":"daxinganling","isOpen":false},{"id":179,"divisionStr":"","name":"连云港","lng":119.173872,"lat":34.601549,"pinyin":"lianyungang","isOpen":true},{"id":180,"divisionStr":"","name":"淮安","lng":0,"lat":0,"pinyin":"huaian","isOpen":false},{"id":181,"divisionStr":"","name":"盐城","lng":120.148872,"lat":33.379862,"pinyin":"yancheng","isOpen":true},{"id":182,"divisionStr":"","name":"镇江","lng":119.455835,"lat":32.204409,"pinyin":"zhenjiang","isOpen":true},{"id":183,"divisionStr":"","name":"泰州","lng":119.919606,"lat":32.476053,"pinyin":"taizhou","isOpen":true},{"id":184,"divisionStr":"","name":"宿迁","lng":0,"lat":0,"pinyin":"suqian","isOpen":false},{"id":185,"divisionStr":"","name":"嘉兴","lng":120.760428,"lat":30.773992,"pinyin":"jiaxing","isOpen":true},{"id":186,"divisionStr":"","name":"湖州","lng":120.137243,"lat":30.877925,"pinyin":"huzhou","isOpen":true},{"id":187,"divisionStr":"","name":"绍兴","lng":120.592467,"lat":30.002365,"pinyin":"shaoxing","isOpen":true},{"id":188,"divisionStr":"","name":"金华","lng":119.652576,"lat":29.102899,"pinyin":"jinhua","isOpen":true},{"id":189,"divisionStr":"","name":"衢州","lng":0,"lat":0,"pinyin":"quzhou","isOpen":false},{"id":190,"divisionStr":"","name":"舟山","lng":0,"lat":0,"pinyin":"zhoushan","isOpen":false},{"id":191,"divisionStr":"","name":"台州","lng":121.440613,"lat":28.668283,"pinyin":"taizhoutz","isOpen":true},{"id":192,"divisionStr":"","name":"丽水","lng":0,"lat":0,"pinyin":"lishui","isOpen":false},{"id":193,"divisionStr":"","name":"淮南","lng":0,"lat":0,"pinyin":"huainan","isOpen":false},{"id":194,"divisionStr":"","name":"马鞍山","lng":0,"lat":0,"pinyin":"maanshan","isOpen":false},{"id":195,"divisionStr":"","name":"淮北","lng":0,"lat":0,"pinyin":"huaibei","isOpen":false},{"id":196,"divisionStr":"","name":"铜陵","lng":0,"lat":0,"pinyin":"tongling","isOpen":false},{"id":197,"divisionStr":"","name":"安庆","lng":0,"lat":0,"pinyin":"anqing","isOpen":false},{"id":198,"divisionStr":"","name":"黄山","lng":0,"lat":0,"pinyin":"huangshan","isOpen":false},{"id":199,"divisionStr":"","name":"滁州","lng":0,"lat":0,"pinyin":"chuzhou","isOpen":false},{"id":200,"divisionStr":"","name":"阜阳","lng":0,"lat":0,"pinyin":"fuyang","isOpen":false},{"id":201,"divisionStr":"","name":"宿州","lng":0,"lat":0,"pinyin":"suzhousz","isOpen":false},{"id":202,"divisionStr":"","name":"巢湖","lng":0,"lat":0,"pinyin":"chaohu","isOpen":false},{"id":203,"divisionStr":"","name":"六安","lng":0,"lat":0,"pinyin":"liuan","isOpen":false},{"id":204,"divisionStr":"","name":"亳州","lng":0,"lat":0,"pinyin":"bozhou","isOpen":false},{"id":205,"divisionStr":"","name":"池州","lng":0,"lat":0,"pinyin":"chizhou","isOpen":false},{"id":206,"divisionStr":"","name":"宣城","lng":0,"lat":0,"pinyin":"xuancheng","isOpen":false},{"id":207,"divisionStr":"","name":"莆田","lng":0,"lat":0,"pinyin":"putian","isOpen":false},{"id":208,"divisionStr":"","name":"三明","lng":0,"lat":0,"pinyin":"sanming","isOpen":false},{"id":209,"divisionStr":"","name":"漳州","lng":0,"lat":0,"pinyin":"zhangzhou","isOpen":false},{"id":210,"divisionStr":"","name":"南平","lng":0,"lat":0,"pinyin":"nanping","isOpen":false},{"id":211,"divisionStr":"","name":"龙岩","lng":0,"lat":0,"pinyin":"longyan","isOpen":false},{"id":212,"divisionStr":"","name":"宁德","lng":0,"lat":0,"pinyin":"ningde","isOpen":false},{"id":213,"divisionStr":"","name":"景德镇","lng":0,"lat":0,"pinyin":"jingdezhen","isOpen":false},{"id":214,"divisionStr":"","name":"萍乡","lng":0,"lat":0,"pinyin":"pingxiang","isOpen":false},{"id":215,"divisionStr":"","name":"新余","lng":0,"lat":0,"pinyin":"xinyu","isOpen":false},{"id":216,"divisionStr":"","name":"鹰潭","lng":0,"lat":0,"pinyin":"yingtan","isOpen":false},{"id":217,"divisionStr":"","name":"赣州","lng":0,"lat":0,"pinyin":"ganzhou","isOpen":false},{"id":218,"divisionStr":"","name":"吉安","lng":0,"lat":0,"pinyin":"jian","isOpen":false},{"id":219,"divisionStr":"","name":"宜春","lng":0,"lat":0,"pinyin":"yichun","isOpen":false},{"id":220,"divisionStr":"","name":"抚州","lng":0,"lat":0,"pinyin":"fuzhoufz","isOpen":false},{"id":221,"divisionStr":"","name":"上饶","lng":0,"lat":0,"pinyin":"shangrao","isOpen":false},{"id":222,"divisionStr":"","name":"枣庄","lng":0,"lat":0,"pinyin":"zaozhuang","isOpen":false},{"id":223,"divisionStr":"","name":"东营","lng":118.583926,"lat":37.487121,"pinyin":"dongying","isOpen":true},{"id":224,"divisionStr":"","name":"潍坊","lng":119.142634,"lat":36.716115,"pinyin":"weifang","isOpen":true},{"id":225,"divisionStr":"","name":"济宁","lng":116.600798,"lat":35.402122,"pinyin":"jining","isOpen":true},{"id":226,"divisionStr":"","name":"泰安","lng":117.089415,"lat":36.188078,"pinyin":"taian","isOpen":true},{"id":227,"divisionStr":"","name":"威海","lng":122.093958,"lat":37.528787,"pinyin":"weihai","isOpen":true},{"id":228,"divisionStr":"","name":"日照","lng":0,"lat":0,"pinyin":"rizhao","isOpen":false},{"id":229,"divisionStr":"","name":"莱芜","lng":0,"lat":0,"pinyin":"laiwu","isOpen":false},{"id":230,"divisionStr":"","name":"临沂","lng":118.340768,"lat":35.072409,"pinyin":"linyi","isOpen":true},{"id":231,"divisionStr":"","name":"德州","lng":0,"lat":0,"pinyin":"dezhou","isOpen":false},{"id":232,"divisionStr":"","name":"聊城","lng":115.986869,"lat":36.455829,"pinyin":"liaocheng","isOpen":true},{"id":233,"divisionStr":"","name":"滨州","lng":0,"lat":0,"pinyin":"binzhou","isOpen":false},{"id":234,"divisionStr":"","name":"菏泽","lng":0,"lat":0,"pinyin":"heze","isOpen":false},{"id":235,"divisionStr":"","name":"开封","lng":0,"lat":0,"pinyin":"kaifeng","isOpen":false},{"id":236,"divisionStr":"","name":"洛阳","lng":112.447525,"lat":34.657368,"pinyin":"luoyang","isOpen":true},{"id":237,"divisionStr":"","name":"平顶山","lng":0,"lat":0,"pinyin":"pingdingshan","isOpen":false},{"id":238,"divisionStr":"","name":"安阳","lng":0,"lat":0,"pinyin":"anyang","isOpen":false},{"id":239,"divisionStr":"","name":"鹤壁","lng":0,"lat":0,"pinyin":"hebi","isOpen":false},{"id":240,"divisionStr":"","name":"濮阳","lng":0,"lat":0,"pinyin":"puyang","isOpen":false},{"id":241,"divisionStr":"","name":"许昌","lng":0,"lat":0,"pinyin":"xuchang","isOpen":false},{"id":242,"divisionStr":"","name":"漯河","lng":0,"lat":0,"pinyin":"luohe","isOpen":false},{"id":243,"divisionStr":"","name":"三门峡","lng":0,"lat":0,"pinyin":"sanmenxia","isOpen":false},{"id":244,"divisionStr":"","name":"南阳","lng":0,"lat":0,"pinyin":"nanyang","isOpen":false},{"id":245,"divisionStr":"","name":"商丘","lng":0,"lat":0,"pinyin":"shangqiu","isOpen":false},{"id":246,"divisionStr":"","name":"信阳","lng":0,"lat":0,"pinyin":"xinyang","isOpen":false},{"id":247,"divisionStr":"","name":"周口","lng":0,"lat":0,"pinyin":"zhoukou","isOpen":false},{"id":248,"divisionStr":"","name":"驻马店","lng":0,"lat":0,"pinyin":"zhumadian","isOpen":false},{"id":249,"divisionStr":"","name":"济源","lng":0,"lat":0,"pinyin":"jiyuan","isOpen":false},{"id":250,"divisionStr":"","name":"黄石","lng":0,"lat":0,"pinyin":"huangshi","isOpen":false},{"id":251,"divisionStr":"","name":"十堰","lng":0,"lat":0,"pinyin":"shiyan","isOpen":false},{"id":252,"divisionStr":"","name":"宜昌","lng":111.310981,"lat":30.732758,"pinyin":"yichang","isOpen":true},{"id":253,"divisionStr":"","name":"襄阳","lng":112.176326,"lat":32.094934,"pinyin":"xiangyang","isOpen":true},{"id":254,"divisionStr":"","name":"鄂州","lng":0,"lat":0,"pinyin":"ezhou","isOpen":false},{"id":255,"divisionStr":"","name":"荆门","lng":0,"lat":0,"pinyin":"jingmen","isOpen":false},{"id":256,"divisionStr":"","name":"孝感","lng":0,"lat":0,"pinyin":"xiaogan","isOpen":false},{"id":257,"divisionStr":"","name":"荆州","lng":112.241866,"lat":30.332591,"pinyin":"jingzhou","isOpen":true},{"id":258,"divisionStr":"","name":"黄冈","lng":0,"lat":0,"pinyin":"huanggang","isOpen":false},{"id":259,"divisionStr":"","name":"咸宁","lng":0,"lat":0,"pinyin":"xianning","isOpen":false},{"id":260,"divisionStr":"","name":"随州","lng":0,"lat":0,"pinyin":"suizhou","isOpen":false},{"id":261,"divisionStr":"","name":"恩施","lng":0,"lat":0,"pinyin":"enshi","isOpen":false},{"id":262,"divisionStr":"","name":"三峡","lng":0,"lat":0,"pinyin":"sanxia","isOpen":false},{"id":263,"divisionStr":"","name":"株洲","lng":0,"lat":0,"pinyin":"zhuzhou","isOpen":false},{"id":264,"divisionStr":"","name":"湘潭","lng":0,"lat":0,"pinyin":"xiangtan","isOpen":false},{"id":265,"divisionStr":"","name":"衡阳","lng":112.583819,"lat":26.898164,"pinyin":"hengyang","isOpen":true},{"id":266,"divisionStr":"","name":"邵阳","lng":0,"lat":0,"pinyin":"shaoyang","isOpen":false},{"id":267,"divisionStr":"","name":"岳阳","lng":113.146196,"lat":29.378007,"pinyin":"yueyang","isOpen":true},{"id":268,"divisionStr":"","name":"常德","lng":0,"lat":0,"pinyin":"changde","isOpen":false},{"id":269,"divisionStr":"","name":"张家界","lng":0,"lat":0,"pinyin":"zhangjiajie","isOpen":false},{"id":270,"divisionStr":"","name":"益阳","lng":0,"lat":0,"pinyin":"yiyang","isOpen":false},{"id":271,"divisionStr":"","name":"郴州","lng":0,"lat":0,"pinyin":"chenzhou","isOpen":false},{"id":272,"divisionStr":"","name":"永州","lng":0,"lat":0,"pinyin":"yongzhou","isOpen":false},{"id":273,"divisionStr":"","name":"怀化","lng":0,"lat":0,"pinyin":"huaihua","isOpen":false},{"id":274,"divisionStr":"","name":"娄底","lng":0,"lat":0,"pinyin":"loudi","isOpen":false},{"id":275,"divisionStr":"","name":"湘西","lng":0,"lat":0,"pinyin":"xiangxi","isOpen":false},{"id":276,"divisionStr":"","name":"韶关","lng":0,"lat":0,"pinyin":"shaoguan","isOpen":false},{"id":277,"divisionStr":"","name":"江门","lng":113.078125,"lat":22.575117,"pinyin":"jiangmen","isOpen":true},{"id":278,"divisionStr":"","name":"湛江","lng":0,"lat":0,"pinyin":"zhanjiang","isOpen":false},{"id":279,"divisionStr":"","name":"茂名","lng":0,"lat":0,"pinyin":"maoming","isOpen":false},{"id":280,"divisionStr":"","name":"肇庆","lng":0,"lat":0,"pinyin":"zhaoqing","isOpen":false},{"id":281,"divisionStr":"","name":"惠州","lng":114.410658,"lat":23.11354,"pinyin":"huizhou","isOpen":true},{"id":282,"divisionStr":"","name":"梅州","lng":0,"lat":0,"pinyin":"meizhou","isOpen":false},{"id":283,"divisionStr":"","name":"汕尾","lng":0,"lat":0,"pinyin":"shanwei","isOpen":false},{"id":284,"divisionStr":"","name":"河源","lng":0,"lat":0,"pinyin":"heyuan","isOpen":false},{"id":285,"divisionStr":"","name":"阳江","lng":0,"lat":0,"pinyin":"yangjiang","isOpen":false},{"id":286,"divisionStr":"","name":"清远","lng":0,"lat":0,"pinyin":"qingyuan","isOpen":false},{"id":287,"divisionStr":"","name":"潮州","lng":0,"lat":0,"pinyin":"chaozhou","isOpen":false},{"id":288,"divisionStr":"","name":"揭阳","lng":0,"lat":0,"pinyin":"jieyang","isOpen":false},{"id":289,"divisionStr":"","name":"云浮","lng":0,"lat":0,"pinyin":"yunfu","isOpen":false},{"id":290,"divisionStr":"","name":"柳州","lng":109.422402,"lat":24.329053,"pinyin":"liuzhou","isOpen":true},{"id":291,"divisionStr":"","name":"梧州","lng":0,"lat":0,"pinyin":"wuzhou","isOpen":false},{"id":292,"divisionStr":"","name":"北海","lng":0,"lat":0,"pinyin":"beihai","isOpen":false},{"id":293,"divisionStr":"","name":"防城港","lng":0,"lat":0,"pinyin":"fangchenggang","isOpen":false},{"id":294,"divisionStr":"","name":"钦州","lng":0,"lat":0,"pinyin":"qinzhou","isOpen":false},{"id":295,"divisionStr":"","name":"贵港","lng":0,"lat":0,"pinyin":"guigang","isOpen":false},{"id":296,"divisionStr":"","name":"玉林","lng":0,"lat":0,"pinyin":"yulin","isOpen":false},{"id":297,"divisionStr":"","name":"百色","lng":0,"lat":0,"pinyin":"baise","isOpen":false},{"id":298,"divisionStr":"","name":"贺州","lng":0,"lat":0,"pinyin":"hezhou","isOpen":false},{"id":299,"divisionStr":"","name":"河池","lng":0,"lat":0,"pinyin":"hechi","isOpen":false},{"id":300,"divisionStr":"","name":"来宾","lng":0,"lat":0,"pinyin":"laibin","isOpen":false},{"id":301,"divisionStr":"","name":"崇左","lng":0,"lat":0,"pinyin":"chongzuo","isOpen":false},{"id":302,"divisionStr":"","name":"自贡","lng":0,"lat":0,"pinyin":"zigong","isOpen":false},{"id":303,"divisionStr":"","name":"攀枝花","lng":0,"lat":0,"pinyin":"panzhihua","isOpen":false},{"id":304,"divisionStr":"","name":"泸州","lng":0,"lat":0,"pinyin":"luzhou","isOpen":false},{"id":305,"divisionStr":"","name":"德阳","lng":0,"lat":0,"pinyin":"deyang","isOpen":false},{"id":306,"divisionStr":"","name":"绵阳","lng":0,"lat":0,"pinyin":"mianyang","isOpen":false},{"id":307,"divisionStr":"","name":"广元","lng":0,"lat":0,"pinyin":"guangyuan","isOpen":false},{"id":308,"divisionStr":"","name":"遂宁","lng":0,"lat":0,"pinyin":"suining","isOpen":false},{"id":309,"divisionStr":"","name":"内江","lng":0,"lat":0,"pinyin":"neijiang","isOpen":false},{"id":310,"divisionStr":"","name":"乐山","lng":0,"lat":0,"pinyin":"leshan","isOpen":false},{"id":311,"divisionStr":"","name":"南充","lng":0,"lat":0,"pinyin":"nanchong","isOpen":false},{"id":312,"divisionStr":"","name":"眉山","lng":0,"lat":0,"pinyin":"meishan","isOpen":false},{"id":313,"divisionStr":"","name":"宜宾","lng":0,"lat":0,"pinyin":"yibin","isOpen":false},{"id":314,"divisionStr":"","name":"广安","lng":0,"lat":0,"pinyin":"guangan","isOpen":false},{"id":315,"divisionStr":"","name":"达州","lng":0,"lat":0,"pinyin":"dazhou","isOpen":false},{"id":316,"divisionStr":"","name":"雅安","lng":0,"lat":0,"pinyin":"yaan","isOpen":false},{"id":317,"divisionStr":"","name":"巴中","lng":0,"lat":0,"pinyin":"bazhong","isOpen":false},{"id":318,"divisionStr":"","name":"资阳","lng":0,"lat":0,"pinyin":"ziyang","isOpen":false},{"id":319,"divisionStr":"","name":"阿坝","lng":0,"lat":0,"pinyin":"aba","isOpen":false},{"id":320,"divisionStr":"","name":"甘孜","lng":0,"lat":0,"pinyin":"ganzi","isOpen":false},{"id":321,"divisionStr":"","name":"凉山","lng":0,"lat":0,"pinyin":"liangshan","isOpen":false},{"id":322,"divisionStr":"","name":"六盘水","lng":0,"lat":0,"pinyin":"liupanshui","isOpen":false},{"id":323,"divisionStr":"","name":"遵义","lng":106.93126,"lat":27.699961,"pinyin":"zunyi","isOpen":true},{"id":324,"divisionStr":"","name":"安顺","lng":0,"lat":0,"pinyin":"anshun","isOpen":false},{"id":325,"divisionStr":"","name":"铜仁","lng":0,"lat":0,"pinyin":"tongrendiqu","isOpen":false},{"id":326,"divisionStr":"","name":"黔西南","lng":0,"lat":0,"pinyin":"qianxinan","isOpen":false},{"id":327,"divisionStr":"","name":"毕节","lng":0,"lat":0,"pinyin":"bijiediqu","isOpen":false},{"id":328,"divisionStr":"","name":"黔东南","lng":0,"lat":0,"pinyin":"qiandongnan","isOpen":false},{"id":329,"divisionStr":"","name":"黔南","lng":0,"lat":0,"pinyin":"qiannan","isOpen":false},{"id":330,"divisionStr":"","name":"曲靖","lng":0,"lat":0,"pinyin":"qujing","isOpen":false},{"id":331,"divisionStr":"","name":"玉溪","lng":0,"lat":0,"pinyin":"yuxi","isOpen":false},{"id":332,"divisionStr":"","name":"保山","lng":0,"lat":0,"pinyin":"baoshan","isOpen":false},{"id":333,"divisionStr":"","name":"昭通","lng":0,"lat":0,"pinyin":"zhaotong","isOpen":false},{"id":334,"divisionStr":"","name":"丽江","lng":0,"lat":0,"pinyin":"lijiang","isOpen":false},{"id":335,"divisionStr":"","name":"普洱","lng":0,"lat":0,"pinyin":"puer","isOpen":false},{"id":336,"divisionStr":"","name":"临沧","lng":0,"lat":0,"pinyin":"lincang","isOpen":false},{"id":337,"divisionStr":"","name":"楚雄","lng":0,"lat":0,"pinyin":"chuxiong","isOpen":false},{"id":338,"divisionStr":"","name":"红河","lng":0,"lat":0,"pinyin":"honghe","isOpen":false},{"id":339,"divisionStr":"","name":"文山","lng":0,"lat":0,"pinyin":"wenshan","isOpen":false},{"id":340,"divisionStr":"","name":"西双版纳","lng":0,"lat":0,"pinyin":"xishuangbanna","isOpen":false},{"id":341,"divisionStr":"","name":"大理","lng":0,"lat":0,"pinyin":"dali","isOpen":false},{"id":342,"divisionStr":"","name":"德宏","lng":0,"lat":0,"pinyin":"dehong","isOpen":false},{"id":343,"divisionStr":"","name":"怒江","lng":0,"lat":0,"pinyin":"nujiang","isOpen":false},{"id":344,"divisionStr":"","name":"迪庆","lng":0,"lat":0,"pinyin":"diqing","isOpen":false},{"id":345,"divisionStr":"","name":"拉萨","lng":0,"lat":0,"pinyin":"lasa","isOpen":false},{"id":346,"divisionStr":"","name":"昌都","lng":0,"lat":0,"pinyin":"changdu","isOpen":false},{"id":347,"divisionStr":"","name":"山南","lng":0,"lat":0,"pinyin":"shannan","isOpen":false},{"id":348,"divisionStr":"","name":"日喀则","lng":0,"lat":0,"pinyin":"rikaze","isOpen":false},{"id":349,"divisionStr":"","name":"那曲","lng":0,"lat":0,"pinyin":"naqu","isOpen":false},{"id":350,"divisionStr":"","name":"阿里","lng":0,"lat":0,"pinyin":"ali","isOpen":false},{"id":351,"divisionStr":"","name":"林芝","lng":0,"lat":0,"pinyin":"linzhi","isOpen":false},{"id":352,"divisionStr":"","name":"铜川","lng":0,"lat":0,"pinyin":"tongchuan","isOpen":false},{"id":353,"divisionStr":"","name":"宝鸡","lng":0,"lat":0,"pinyin":"baoji","isOpen":false},{"id":354,"divisionStr":"","name":"咸阳","lng":0,"lat":0,"pinyin":"xianyang","isOpen":false},{"id":355,"divisionStr":"","name":"渭南","lng":0,"lat":0,"pinyin":"weinan","isOpen":false},{"id":356,"divisionStr":"","name":"延安","lng":0,"lat":0,"pinyin":"yanan","isOpen":false},{"id":357,"divisionStr":"","name":"汉中","lng":0,"lat":0,"pinyin":"hanzhong","isOpen":false},{"id":358,"divisionStr":"","name":"榆林","lng":0,"lat":0,"pinyin":"yulinyl","isOpen":false},{"id":359,"divisionStr":"","name":"安康","lng":0,"lat":0,"pinyin":"ankang","isOpen":false},{"id":360,"divisionStr":"","name":"商洛","lng":0,"lat":0,"pinyin":"shangluo","isOpen":false},{"id":361,"divisionStr":"","name":"兰州","lng":103.823305,"lat":36.064226,"pinyin":"lanzhou","isOpen":true},{"id":362,"divisionStr":"","name":"金昌","lng":0,"lat":0,"pinyin":"jinchang","isOpen":false},{"id":363,"divisionStr":"","name":"白银","lng":0,"lat":0,"pinyin":"baiyin","isOpen":false},{"id":364,"divisionStr":"","name":"天水","lng":0,"lat":0,"pinyin":"tianshui","isOpen":false},{"id":365,"divisionStr":"","name":"武威","lng":0,"lat":0,"pinyin":"wuwei","isOpen":false},{"id":366,"divisionStr":"","name":"张掖","lng":0,"lat":0,"pinyin":"zhangye","isOpen":false},{"id":367,"divisionStr":"","name":"平凉","lng":0,"lat":0,"pinyin":"pingliang","isOpen":false},{"id":368,"divisionStr":"","name":"酒泉","lng":0,"lat":0,"pinyin":"jiuquan","isOpen":false},{"id":369,"divisionStr":"","name":"庆阳","lng":0,"lat":0,"pinyin":"qingyang","isOpen":false},{"id":370,"divisionStr":"","name":"定西","lng":0,"lat":0,"pinyin":"dingxi","isOpen":false},{"id":371,"divisionStr":"","name":"陇南","lng":0,"lat":0,"pinyin":"longnan","isOpen":false},{"id":372,"divisionStr":"","name":"临夏","lng":0,"lat":0,"pinyin":"linxia","isOpen":false},{"id":373,"divisionStr":"","name":"甘南","lng":0,"lat":0,"pinyin":"gannan","isOpen":false},{"id":374,"divisionStr":"","name":"西宁","lng":101.767921,"lat":36.640739,"pinyin":"xining","isOpen":true},{"id":375,"divisionStr":"","name":"海东","lng":0,"lat":0,"pinyin":"haidong","isOpen":false},{"id":376,"divisionStr":"","name":"海北","lng":0,"lat":0,"pinyin":"haibei","isOpen":false},{"id":377,"divisionStr":"","name":"黄南","lng":0,"lat":0,"pinyin":"huangnan","isOpen":false},{"id":378,"divisionStr":"","name":"海南州","lng":0,"lat":0,"pinyin":"hainanzhou","isOpen":false},{"id":379,"divisionStr":"","name":"果洛","lng":0,"lat":0,"pinyin":"guoluo","isOpen":false},{"id":380,"divisionStr":"","name":"玉树","lng":0,"lat":0,"pinyin":"yushu","isOpen":false},{"id":381,"divisionStr":"","name":"海西","lng":0,"lat":0,"pinyin":"haixi","isOpen":false},{"id":382,"divisionStr":"","name":"银川","lng":0,"lat":0,"pinyin":"yinchuan","isOpen":false},{"id":383,"divisionStr":"","name":"石嘴山","lng":0,"lat":0,"pinyin":"shizuishan","isOpen":false},{"id":384,"divisionStr":"","name":"吴忠","lng":0,"lat":0,"pinyin":"wuzhong","isOpen":false},{"id":385,"divisionStr":"","name":"固原","lng":0,"lat":0,"pinyin":"guyuan","isOpen":false},{"id":386,"divisionStr":"","name":"中卫","lng":0,"lat":0,"pinyin":"zhongwei","isOpen":false},{"id":387,"divisionStr":"","name":"乌鲁木齐","lng":0,"lat":0,"pinyin":"wulumuqi","isOpen":false},{"id":388,"divisionStr":"","name":"克拉玛依","lng":0,"lat":0,"pinyin":"kelamayi","isOpen":false},{"id":389,"divisionStr":"","name":"吐鲁番","lng":0,"lat":0,"pinyin":"tulufan","isOpen":false},{"id":390,"divisionStr":"","name":"哈密","lng":0,"lat":0,"pinyin":"hami","isOpen":false},{"id":391,"divisionStr":"","name":"昌吉","lng":0,"lat":0,"pinyin":"changji","isOpen":false},{"id":392,"divisionStr":"","name":"博尔塔拉","lng":0,"lat":0,"pinyin":"boertala","isOpen":false},{"id":393,"divisionStr":"","name":"巴州","lng":0,"lat":0,"pinyin":"bazhou","isOpen":false},{"id":394,"divisionStr":"","name":"阿克苏","lng":0,"lat":0,"pinyin":"akesu","isOpen":false},{"id":395,"divisionStr":"","name":"克州","lng":0,"lat":0,"pinyin":"kezhou","isOpen":false},{"id":396,"divisionStr":"","name":"喀什","lng":0,"lat":0,"pinyin":"kashi","isOpen":false},{"id":397,"divisionStr":"","name":"和田","lng":0,"lat":0,"pinyin":"hetian","isOpen":false},{"id":398,"divisionStr":"","name":"伊犁","lng":0,"lat":0,"pinyin":"yili","isOpen":false},{"id":399,"divisionStr":"","name":"塔城","lng":0,"lat":0,"pinyin":"tacheng","isOpen":false},{"id":400,"divisionStr":"","name":"阿勒泰","lng":0,"lat":0,"pinyin":"aletai","isOpen":false},{"id":401,"divisionStr":"","name":"台北","lng":0,"lat":0,"pinyin":"taibei","isOpen":false},{"id":402,"divisionStr":"","name":"澳门","lng":0,"lat":0,"pinyin":"aomen","isOpen":false},{"id":403,"divisionStr":"江苏--苏州--昆山","name":"昆山","lng":120.965808,"lat":31.328937,"pinyin":"kunshan","isOpen":true},{"id":404,"divisionStr":"","name":"江阴","lng":0,"lat":0,"pinyin":"jiangyin","isOpen":false},{"id":405,"divisionStr":"浙江--金华--义乌","name":"义乌","lng":120.067296,"lat":29.306444,"pinyin":"yiwu","isOpen":true},{"id":406,"divisionStr":"广东--佛山--顺德","name":"顺德","lng":113.18703,"lat":22.84851,"pinyin":"shunde","isOpen":true},{"id":408,"divisionStr":"","name":"石河子","lng":0,"lat":0,"pinyin":"shihezi","isOpen":false},{"id":409,"divisionStr":"","name":"嘉峪关","lng":0,"lat":0,"pinyin":"jiayuguan","isOpen":false},{"id":410,"divisionStr":"","name":"花都","lng":0,"lat":0,"pinyin":"huadu","isOpen":false},{"id":411,"divisionStr":"","name":"番禺","lng":0,"lat":0,"pinyin":"panyu","isOpen":false},{"id":412,"divisionStr":"","name":"仙桃","lng":0,"lat":0,"pinyin":"xiantao","isOpen":false},{"id":416,"divisionStr":"","name":"富阳","lng":0,"lat":0,"pinyin":"fuyangfy","isOpen":false},{"id":417,"divisionStr":"","name":"峨眉山","lng":0,"lat":0,"pinyin":"emeishan","isOpen":false},{"id":418,"divisionStr":"","name":"琼海","lng":0,"lat":0,"pinyin":"qionghai","isOpen":false},{"id":419,"divisionStr":"","name":"张家港","lng":0,"lat":0,"pinyin":"zhangjiagang","isOpen":false},{"id":420,"divisionStr":"","name":"晋江","lng":0,"lat":0,"pinyin":"jinjiang","isOpen":false},{"id":421,"divisionStr":"","name":"从化","lng":0,"lat":0,"pinyin":"conghua","isOpen":false},{"id":422,"divisionStr":"","name":"常熟","lng":0,"lat":0,"pinyin":"changshu","isOpen":false},{"id":423,"divisionStr":"","name":"延吉","lng":0,"lat":0,"pinyin":"yanji","isOpen":false},{"id":424,"divisionStr":"","name":"海宁","lng":0,"lat":0,"pinyin":"haining","isOpen":false},{"id":425,"divisionStr":"","name":"桐乡","lng":0,"lat":0,"pinyin":"tongxiang","isOpen":false},{"id":426,"divisionStr":"","name":"涿州","lng":0,"lat":0,"pinyin":"zhuozhou","isOpen":false},{"id":427,"divisionStr":"","name":"涪陵","lng":0,"lat":0,"pinyin":"fuling","isOpen":false},{"id":428,"divisionStr":"","name":"万州","lng":0,"lat":0,"pinyin":"wanzhou","isOpen":false},{"id":429,"divisionStr":"","name":"江宁","lng":0,"lat":0,"pinyin":"jiangning","isOpen":false},{"id":430,"divisionStr":"","name":"迁安","lng":0,"lat":0,"pinyin":"qianan","isOpen":false},{"id":431,"divisionStr":"","name":"丹阳","lng":0,"lat":0,"pinyin":"danyang","isOpen":false},{"id":432,"divisionStr":"","name":"太仓","lng":0,"lat":0,"pinyin":"taicang","isOpen":false},{"id":434,"divisionStr":"","name":"敦煌","lng":0,"lat":0,"pinyin":"dunhunag","isOpen":false},{"id":435,"divisionStr":"","name":"塘沽","lng":0,"lat":0,"pinyin":"tanggu","isOpen":false},{"id":440,"divisionStr":"","name":"石狮","lng":0,"lat":0,"pinyin":"shishi","isOpen":false},{"id":443,"divisionStr":"","name":"武夷山","lng":0,"lat":0,"pinyin":"wuyishan","isOpen":false},{"id":445,"divisionStr":"","name":"萧山","lng":0,"lat":0,"pinyin":"xiaoshan","isOpen":false}]}